{"type": "FeatureCollection", "features": [ {"type": "Feature", "properties": {"norad_id": 44476, "name": "INTELSAT 39 (IS-39)", "group": "intelsat", "lat": -0.030476133119234715, "lon": -58.57835219526011, "alt_km": 35790.96227240276, "timestamp": "2025-12-23T09:49:06.744279+00:00", "meta": {"OBJECT_NAME": "INTELSAT 39 (IS-39)", "OBJECT_ID": "2019-049B", "EPOCH": "2025-12-22T22:01:11.051328", "MEAN_MOTION": 1.00270825, "ECCENTRICITY": 0.00012046, "INCLINATION": 0.0187, "RA_OF_ASC_NODE": 340.7902, "ARG_OF_PERICENTER": 164.7349, "MEAN_ANOMALY": 338.4327, "EPHEMERIS_TYPE": 0, "CLASSIFICATION_TYPE": "U", "NORAD_CAT_ID": 44476, "ELEMENT_SET_NO": 999, "REV_AT_EPOCH": 2336, "BSTAR": 0, "MEAN_MOTION_DOT": 5.5e-07, "MEAN_MOTION_DDOT": 0}, "tle": {"line1": "1 44476U 19049B   25356.91748902  .00000055  00000+0  00000+0 0  9997", "line2": "2 44476   0.0187 340.7902 0001204 164.7349 338.4327  1.00270825 23368"}}, "geometry": {"type": "Point", "coordinates": [-58.57835219526011, -0.030476133119234715]}}, {"type": "Feature", "properties": {"norad_id": 46114, "name": "GALAXY 30 (G-30)", "group": "intelsat", "lat": 0.04157202327179291, "lon": 114.46156524103777, "alt_km": 35794.03449554849, "timestamp": "2025-12-23T09:49:06.744290+00:00", "meta": {"OBJECT_NAME": "GALAXY 30 (G-30)", "OBJECT_ID": "2020-056C", "EPOCH": "2025-12-22T14:16:55.506432", "MEAN_MOTION": 1.00270121, "ECCENTRICITY": 0.00020176, "INCLINATION": 0.0183, "RA_OF_ASC_NODE": 9.653, "ARG_OF_PERICENTER": 256.7413, "MEAN_ANOMALY": 274.2401, "EPHEMERIS_TYPE": 0, "CLASSIFICATION_TYPE": "U", "NORAD_CAT_ID": 46114, "ELEMENT_SET_NO": 999, "REV_AT_EPOCH": 1952, "BSTAR": 0, "MEAN_MOTION_DOT": 5.8e-07, "MEAN_MOTION_DDOT": 0}, "tle": {"line1": "1 46114U 20056C   25356.59508688  .00000058  00000+0  00000+0 0  9990", "line2": "2 46114   0.0183   9.6530 0002017 256.7413 274.2401  1.00270121 19522"}}, "geometry": {"type": "Point", "coordinates": [114.46156524103777, 0.04157202327179291]}}, {"type": "Feature", "properties": {"norad_id": 54026, "name": "GALAXY 33 (G-33)", "group": "intelsat", "lat": 0.020691152523412408, "lon": 106.46781507930835, "alt_km": 35792.277991265306, "timestamp": "2025-12-23T09:49:06.744302+00:00", "meta": {"OBJECT_NAME": "GALAXY 33 (G-33)", "OBJECT_ID": "2022-128A", "EPOCH": "2025-12-22T11:35:15.906336", "MEAN_MOTION": 1.00271669, "ECCENTRICITY": 0.00015964, "INCLINATION": 0.0184, "RA_OF_ASC_NODE": 305.6803, "ARG_OF_PERICENTER": 318.2802, "MEAN_ANOMALY": 228.1459, "EPHEMERIS_TYPE": 0, "CLASSIFICATION_TYPE": "U", "NORAD_CAT_ID": 54026, "ELEMENT_SET_NO": 999, "REV_AT_EPOCH": 1197, "BSTAR": 0, "MEAN_MOTION_DOT": 1.01e-06, "MEAN_MOTION_DDOT": 0}, "tle": {"line1": "1 54026U 22128A   25356.48282299  .00000101  00000+0  00000+0 0  9997", "line2": "2 54026   0.0184 305.6803 0001596 318.2802 228.1459  1.00271669 11973"}}, "geometry": {"type": "Point", "coordinates": [106.46781507930835, 0.020691152523412408]}}, {"type": "Feature", "properties": {"norad_id": 54027, "name": "GALAXY 34 (G-34)", "group": "intelsat", "lat": 0.038784307971732594, "lon": 110.50203490843205, "alt_km": 35793.349246472346, "timestamp": "2025-12-23T09:49:06.744313+00:00", "meta": {"OBJECT_NAME": "GALAXY 34 (G-34)", "OBJECT_ID": "2022-128B", "EPOCH": "2025-12-22T14:15:48.113568", "MEAN_MOTION": 1.00269244, "ECCENTRICITY": 0.0001759, "INCLINATION": 0.0236, "RA_OF_ASC_NODE": 341.2387, "ARG_OF_PERICENTER": 281.9092, "MEAN_ANOMALY": 273.2464, "EPHEMERIS_TYPE": 0, "CLASSIFICATION_TYPE": "U", "NORAD_CAT_ID": 54027, "ELEMENT_SET_NO": 999, "REV_AT_EPOCH": 1214, "BSTAR": 0, "MEAN_MOTION_DOT": 0, "MEAN_MOTION_DDOT": 0}, "tle": {"line1": "1 54027U 22128B   25356.59430687  .00000000  00000+0  00000+0 0  9994", "line2": "2 54027   0.0236 341.2387 0001759 281.9092 273.2464  1.00269244 12146"}}, "geometry": {"type": "Point", "coordinates": [110.50203490843205, 0.038784307971732594]}}, {"type": "Feature", "properties": {"norad_id": 54243, "name": "GALAXY 31 (G-31)", "group": "intelsat", "lat": 0.00793766845269016, "lon": 118.46240519981906, "alt_km": 35791.99689018076, "timestamp": "2025-12-23T09:49:06.744325+00:00", "meta": {"OBJECT_NAME": "GALAXY 31 (G-31)", "OBJECT_ID": "2022-153A", "EPOCH": "2025-12-22T14:18:02.899296", "MEAN_MOTION": 1.00271248, "ECCENTRICITY": 0.00014318, "INCLINATION": 0.0304, "RA_OF_ASC_NODE": 247.6237, "ARG_OF_PERICENTER": 34.2912, "MEAN_ANOMALY": 262.9925, "EPHEMERIS_TYPE": 0, "CLASSIFICATION_TYPE": "U", "NORAD_CAT_ID": 54243, "ELEMENT_SET_NO": 999, "REV_AT_EPOCH": 536, "BSTAR": 0, "MEAN_MOTION_DOT": 3.5e-07, "MEAN_MOTION_DDOT": 0}, "tle": {"line1": "1 54243U 22153A   25356.59586689  .00000035  00000+0  00000+0 0  9994", "line2": "2 54243   0.0304 247.6237 0001431  34.2912 262.9925  1.00271248  5362"}}, "geometry": {"type": "Point", "coordinates": [118.46240519981906, 0.00793766845269016]}}, {"type": "Feature", "properties": {"norad_id": 54244, "name": "GALAXY 32 (G-32)", "group": "intelsat", "lat": 0.01794309793791928, "lon": 148.45934904826512, "alt_km": 35794.81946468245, "timestamp": "2025-12-23T09:49:06.744337+00:00", "meta": {"OBJECT_NAME": "GALAXY 32 (G-32)", "OBJECT_ID": "2022-153B", "EPOCH": "2025-12-22T07:35:47.616576", "MEAN_MOTION": 1.00270236, "ECCENTRICITY": 0.00019823, "INCLINATION": 0.0109, "RA_OF_ASC_NODE": 353.9495, "ARG_OF_PERICENTER": 325.6757, "MEAN_ANOMALY": 154.4441, "EPHEMERIS_TYPE": 0, "CLASSIFICATION_TYPE": "U", "NORAD_CAT_ID": 54244, "ELEMENT_SET_NO": 999, "REV_AT_EPOCH": 1137, "BSTAR": 0, "MEAN_MOTION_DOT": -1.52e-06, "MEAN_MOTION_DDOT": 0}, "tle": {"line1": "1 54244U 22153B   25356.31652334 -.00000152  00000+0  00000+0 0  9997", "line2": "2 54244   0.0109 353.9495 0001982 325.6757 154.4441  1.00270236 11370"}}, "geometry": {"type": "Point", "coordinates": [148.45934904826512, 0.01794309793791928]}}, {"type": "Feature", "properties": {"norad_id": 54741, "name": "GALAXY 35 (G-35)", "group": "intelsat", "lat": 0.027843058551119484, "lon": 146.3596900248778, "alt_km": 35791.87352695003, "timestamp": "2025-12-23T09:49:06.744348+00:00", "meta": {"OBJECT_NAME": "GALAXY 35 (G-35)", "OBJECT_ID": "2022-170A", "EPOCH": "2025-12-22T21:16:52.794624", "MEAN_MOTION": 1.00271625, "ECCENTRICITY": 0.00021976, "INCLINATION": 0.0216, "RA_OF_ASC_NODE": 86.6733, "ARG_OF_PERICENTER": 187.6456, "MEAN_ANOMALY": 43.4947, "EPHEMERIS_TYPE": 0, "CLASSIFICATION_TYPE": "U", "NORAD_CAT_ID": 54741, "ELEMENT_SET_NO": 999, "REV_AT_EPOCH": 1112, "BSTAR": 0, "MEAN_MOTION_DOT": -1.41e-06, "MEAN_MOTION_DDOT": 0}, "tle": {"line1": "1 54741U 22170A   25356.88672216 -.00000141  00000+0  00000+0 0  9999", "line2": "2 54741   0.0216  86.6733 0002197 187.6456  43.4947  1.00271625 11121"}}, "geometry": {"type": "Point", "coordinates": [146.3596900248778, 0.027843058551119484]}}, {"type": "Feature", "properties": {"norad_id": 54742, "name": "GALAXY 36 (G-36)", "group": "intelsat", "lat": 0.03167856413264743, "lon": 150.46019945983377, "alt_km": 35788.8780788625, "timestamp": "2025-12-23T09:49:06.744360+00:00", "meta": {"OBJECT_NAME": "GALAXY 36 (G-36)", "OBJECT_ID": "2022-170B", "EPOCH": "2025-12-22T21:18:07.674912", "MEAN_MOTION": 1.00268471, "ECCENTRICITY": 4.487e-05, "INCLINATION": 0.0161, "RA_OF_ASC_NODE": 47.846, "ARG_OF_PERICENTER": 294.9484, "MEAN_ANOMALY": 339.4175, "EPHEMERIS_TYPE": 0, "CLASSIFICATION_TYPE": "U", "NORAD_CAT_ID": 54742, "ELEMENT_SET_NO": 999, "REV_AT_EPOCH": 1100, "BSTAR": 0, "MEAN_MOTION_DOT": 0, "MEAN_MOTION_DDOT": 0}, "tle": {"line1": "1 54742U 22170B   25356.88758883  .00000000  00000+0  00000+0 0  9998", "line2": "2 54742   0.0161  47.8460 0000448 294.9484 339.4175  1.00268471 11000"}}, "geometry": {"type": "Point", "coordinates": [150.46019945983377, 0.03167856413264743]}}, {"type": "Feature", "properties": {"norad_id": 57493, "name": "GALAXY 37 (G-37)", "group": "intelsat", "lat": 0.03375272846423403, "lon": 112.45525086906629, "alt_km": 35794.183428758966, "timestamp": "2025-12-23T09:49:06.744372+00:00", "meta": {"OBJECT_NAME": "GALAXY 37 (G-37)", "OBJECT_ID": "2023-112A", "EPOCH": "2025-12-22T17:41:50.884800", "MEAN_MOTION": 1.00271316, "ECCENTRICITY": 0.00019795, "INCLINATION": 0.0146, "RA_OF_ASC_NODE": 349.5119, "ARG_OF_PERICENTER": 286.0487, "MEAN_ANOMALY": 314.4307, "EPHEMERIS_TYPE": 0, "CLASSIFICATION_TYPE": "U", "NORAD_CAT_ID": 57493, "ELEMENT_SET_NO": 999, "REV_AT_EPOCH": 877, "BSTAR": 0, "MEAN_MOTION_DOT": 7e-07, "MEAN_MOTION_DDOT": 0}, "tle": {"line1": "1 57493U 23112A   25356.73739450  .00000070  00000+0  00000+0 0  9991", "line2": "2 57493   0.0146 349.5119 0001979 286.0487 314.4307  1.00271316  8779"}}, "geometry": {"type": "Point", "coordinates": [112.45525086906629, 0.03375272846423403]}}]}